{
    "links": {
        "self": "http://www.neowsapp.com/rest/v1/neo/3444436?api_key=iIulBulltgU6a56xZRHN4H3l9WmuAYTsLGpBGhQ2"
    },
    "id": "3444436",
    "neo_reference_id": "3444436",
    "name": "(2009 BO5)",
    "designation": "2009 BO5",
    "nasa_jpl_url": "http://ssd.jpl.nasa.gov/sbdb.cgi?sstr=3444436",
    "absolute_magnitude_h": 26.8,
    "estimated_diameter": {
        "kilometers": {
            "estimated_diameter_min": 0.0116025908,
            "estimated_diameter_max": 0.0259441818
        },
        "meters": {
            "estimated_diameter_min": 11.6025908209,
            "estimated_diameter_max": 25.9441817907
        },
        "miles": {
            "estimated_diameter_min": 0.0072095135,
            "estimated_diameter_max": 0.0161209622
        },
        "feet": {
            "estimated_diameter_min": 38.066244069,
            "estimated_diameter_max": 85.1187093863
        }
    },
    "is_potentially_hazardous_asteroid": false,
    "close_approach_data": [
        {
            "close_approach_date": "1991-12-22",
            "close_approach_date_full": "1991-Dec-22 16:09",
            "epoch_date_close_approach": 693418140000,
            "relative_velocity": {
                "kilometers_per_second": "20.8423158352",
                "kilometers_per_hour": "75032.3370067513",
                "miles_per_hour": "46622.1762917783"
            },
            "miss_distance": {
                "astronomical": "0.490329057",
                "lunar": "190.738003173",
                "kilometers": "73352182.52630859",
                "miles": "45578932.698654942"
            },
            "orbiting_body": "Earth"
        },
        {
            "close_approach_date": "1995-11-04",
            "close_approach_date_full": "1995-Nov-04 18:25",
            "epoch_date_close_approach": 815509500000,
            "relative_velocity": {
                "kilometers_per_second": "9.4674045873",
                "kilometers_per_hour": "34082.6565141991",
                "miles_per_hour": "21177.6373212811"
            },
            "miss_distance": {
                "astronomical": "0.0622514406",
                "lunar": "24.2158103934",
                "kilometers": "9312682.918191522",
                "miles": "5786632.8356341236"
            },
            "orbiting_body": "Mars"
        },
        {
            "close_approach_date": "2009-01-25",
            "close_approach_date_full": "2009-Jan-25 23:36",
            "epoch_date_close_approach": 1232926560000,
            "relative_velocity": {
                "kilometers_per_second": "6.5528017243",
                "kilometers_per_hour": "23590.0862075105",
                "miles_per_hour": "14657.9621771056"
            },
            "miss_distance": {
                "astronomical": "0.0170967237",
                "lunar": "6.6506255193",
                "kilometers": "2557633.449498519",
                "miles": "1589239.7314928022"
            },
            "orbiting_body": "Earth"
        },
        {
            "close_approach_date": "2014-05-06",
            "close_approach_date_full": "2014-May-06 22:13",
            "epoch_date_close_approach": 1399414380000,
            "relative_velocity": {
                "kilometers_per_second": "16.7425339762",
                "kilometers_per_hour": "60273.1223143733",
                "miles_per_hour": "37451.3742513949"
            },
            "miss_distance": {
                "astronomical": "0.3657214501",
                "lunar": "142.2656440889",
                "kilometers": "54711149.948271287",
                "miles": "33995932.1655342806"
            },
            "orbiting_body": "Earth"
        },
        {
            "close_approach_date": "2070-04-14",
            "close_approach_date_full": "2070-Apr-14 21:58",
            "epoch_date_close_approach": 3164738280000,
            "relative_velocity": {
                "kilometers_per_second": "7.4652107611",
                "kilometers_per_hour": "26874.7587401017",
                "miles_per_hour": "16698.9299515926"
            },
            "miss_distance": {
                "astronomical": "0.0789782621",
                "lunar": "30.7225439569",
                "kilometers": "11814979.786461727",
                "miles": "7341488.0099847526"
            },
            "orbiting_body": "Earth"
        }
    ],
    "orbital_data": {
        "orbit_id": "8",
        "orbit_determination_date": "2017-04-06 09:01:36",
        "first_observation_date": "2009-01-20",
        "last_observation_date": "2009-01-23",
        "data_arc_in_days": 3,
        "observations_used": 36,
        "orbit_uncertainty": "7",
        "minimum_orbit_intersection": ".0046412",
        "jupiter_tisserand_invariant": "4.645",
        "epoch_osculation": "2459000.5",
        "eccentricity": ".3265327577071774",
        "semi_major_axis": "1.422280802951775",
        "inclination": "3.462194748517083",
        "ascending_node_longitude": "306.0171292115879",
        "orbital_period": "619.5501254297395",
        "perihelion_distance": ".9578595301299534",
        "perihelion_argument": "212.4543063772661",
        "aphelion_distance": "1.886702075773597",
        "perihelion_time": "2459221.426443851185",
        "mean_anomaly": "231.6269813822412",
        "mean_motion": ".5810667857589289",
        "equinox": "J2000",
        "orbit_class": {
            "orbit_class_type": "APO",
            "orbit_class_description": "Near-Earth asteroid orbits which cross the Earth’s orbit similar to that of 1862 Apollo",
            "orbit_class_range": "a (semi-major axis) > 1.0 AU; q (perihelion) < 1.017 AU"
        }
    },
    "is_sentry_object": false
}